OBJECT_NAME,OBJECT_ID,EPOCH,MEAN_MOTION,ECCENTRICITY,INCLINATION,RA_OF_ASC_NODE,ARG_OF_PERICENTER,MEAN_ANOMALY,EPHEMERIS_TYPE,CLASSIFICATION_TYPE,NORAD_CAT_ID,ELEMENT_SET_NO,REV_AT_EPOCH,BSTAR,MEAN_MOTION_DOT,MEAN_MOTION_DDOT
STARLINK-33915,2025-087M,2026-06-29T22:19:49.066464,15.30210779,.00010273,53.1610,58.2478,83.0559,277.0558,0,U,63708,999,6638,.8033487E-3,.23517E-3,0
STARLINK-33862,2025-087N,2026-06-29T22:10:42.064608,15.30210134,.00013506,53.1605,58.2080,81.3305,278.7848,0,U,63709,999,6638,.77811164E-3,.22764E-3,0
STARLINK-33920,2025-087P,2026-06-29T23:01:32.600640,15.31712702,.0001007,53.1581,57.7248,80.2378,279.8737,0,U,63710,999,6639,.52107643E-3,.15845E-3,0
STARLINK-33580,2025-087Q,2026-06-29T21:34:18.155136,15.31719540,.00017253,53.1583,58.0539,143.5117,216.6002,0,U,63711,999,6638,.87170013E-3,.26799E-3,0
STARLINK-33783,2025-087R,2026-06-29T22:48:06.022080,15.31712636,.00008908,53.1581,57.6610,84.8643,275.2460,0,U,63712,999,6639,.71119592E-3,.21777E-3,0
STARLINK-33773,2025-087S,2026-06-29T23:28:18.199488,15.31723457,.00009037,53.1594,57.1251,127.0549,233.0536,0,U,63713,999,6640,.11309334E-2,.34919E-3,0
STARLINK-33745,2025-087T,2026-06-30T14:00:01.000224,15.30175584,.00011113,53.1590,54.9603,99.0491,27.7611,0,U,63714,999,581,.16148309E-2,.47739E-3,0
STARLINK-33728,2025-087U,2026-06-29T23:31:03.031680,15.30234677,.00013228,53.1618,57.8437,85.5766,274.5386,0,U,63715,999,6639,.64533606E-3,.18823E-3,0
STARLINK-33749,2025-087V,2026-06-29T22:54:49.339008,15.31713666,.00009682,53.1584,57.6868,62.9233,297.1867,0,U,63716,999,6639,.95718233E-3,.29467E-3,0
STARLINK-33725,2025-087W,2026-06-29T23:35:37.129632,15.30233349,.00011172,53.1608,57.8624,81.9037,278.2091,0,U,63717,999,6639,.96543802E-3,.28373E-3,0
STARLINK-33641,2025-087X,2026-06-29T22:27:56.223360,15.31710197,.00008652,53.1589,57.5705,51.3750,308.7329,0,U,63718,999,6639,.77002339E-3,.23613E-3,0
STARLINK-33727,2025-087Y,2026-06-29T22:07:25.580640,15.34412156,.00009716,53.1598,56.0689,82.6501,277.4612,0,U,63719,999,6641,.79344543E-3,.26537E-3,0
STARLINK-33757,2025-087Z,2026-06-29T22:16:45.454368,15.30238659,.00009482,53.1606,58.2298,83.0552,277.0557,0,U,63720,999,6638,.98594975E-3,.28991E-3,0
STARLINK-33774,2025-087AA,2026-06-29T22:41:22.674048,15.31720647,.00010005,53.1577,57.6317,92.3816,267.7300,0,U,63721,999,6639,.10016569E-2,.30866E-3,0
STARLINK-33767,2025-087AB,2026-06-29T23:32:35.758752,15.30205817,.00012132,53.1602,57.8465,83.4148,276.6991,0,U,63722,999,6639,.60167682E-3,.17506E-3,0
STARLINK-33806,2025-087AC,2026-06-29T22:07:39.489312,15.30228165,.00013654,53.1608,58.1912,88.4276,271.6881,0,U,63723,999,6638,.12350854E-2,.36432E-3,0
STARLINK-11677 [DTC],2025-089A,2026-06-29T20:39:56.816928,15.70875947,.00018353,42.9989,336.4289,263.8724,96.1934,0,U,63751,999,6777,.15573452E-2,.204688E-2,0
STARLINK-11702 [DTC],2025-089B,2026-06-30T11:17:19.243104,15.70844835,.00016398,43.0000,332.3807,278.9612,81.1070,0,U,63752,999,6787,.84930306E-3,.110004E-2,0
STARLINK-11706 [DTC],2025-089C,2026-06-28T20:45:20.838528,15.70845174,.00022409,42.9998,341.8337,237.1088,122.9564,0,U,63753,999,6762,-.14476597E-3,-.18988E-3,0
STARLINK-11662 [DTC],2025-089D,2026-06-30T11:32:36.557088,15.70856259,.0001921,42.9998,332.4667,282.7931,77.2722,0,U,63754,999,6792,.12887897E-2,.168431E-2,0
STARLINK-11681 [DTC],2025-089E,2026-06-30T10:16:20.163360,15.70883261,.00021033,43.0003,332.9349,298.3652,61.7004,0,U,63755,999,6786,.14886281E-2,.19548E-2,0
STARLINK-11688 [DTC],2025-089F,2026-06-29T21:40:54.850368,15.70952479,.00049067,43.0009,335.8732,274.5466,85.4841,0,U,63756,999,6767,.16079172E-2,.21231E-2,0
STARLINK-11676 [DTC],2025-089G,2026-06-30T13:42:11.903040,15.70606001,.00013816,42.9994,331.3995,251.1666,108.9052,0,U,63757,999,6778,.36097378E-2,.486112E-2,0
STARLINK-11705 [DTC],2025-089H,2026-06-30T11:40:14.776896,15.70856983,.0001249,42.9993,332.5077,275.9952,84.0773,0,U,63758,999,6782,.68585566E-3,.88561E-3,0
STARLINK-11703 [DTC],2025-089J,2026-06-30T03:31:53.169024,15.70876138,.00005957,43.0004,334.2519,351.3363,8.7494,0,U,63759,999,6782,.15580081E-2,.20478E-2,0
STARLINK-11701 [DTC],2025-089K,2026-06-30T03:08:57.075360,15.70863340,.00007906,43.0013,334.1220,5.5351,354.5526,0,U,63760,999,6782,.12468497E-2,.16287E-2,0
STARLINK-11660 [DTC],2025-089L,2026-06-30T03:24:14.051520,15.70895523,.00015302,42.9997,334.2095,292.6372,67.4334,0,U,63761,999,6777,.1650333E-2,.21745E-2,0
STARLINK-11699 [DTC],2025-089M,2026-06-30T02:53:50.391168,15.70871387,.00010229,42.9999,334.9334,296.0474,64.0288,0,U,63762,999,6781,.14027764E-2,.183824E-2,0
STARLINK-11693 [DTC],2025-089N,2026-06-30T03:33:11.582208,15.70884795,.00011667,42.9992,334.2582,284.3813,75.6925,0,U,63763,999,6771,.19084801E-2,.252496E-2,0
STARLINK-33760,2025-089P,2026-06-29T21:01:54.346080,15.27609882,.00010398,42.9994,131.7852,268.6500,91.4232,0,U,63764,999,6611,.69574704E-3,.1895E-3,0
