STARLINK-33915          
1 63708U 25087M   26180.93042901  .00023517  00000+0  80335-3 0  9990
2 63708  53.1610  58.2478 0001027  83.0559 277.0558 15.30210779 66388
STARLINK-33862          
1 63709U 25087N   26180.92409797  .00022764  00000+0  77811-3 0  9998
2 63709  53.1605  58.2080 0001350  81.3305 278.7848 15.30210134 66386
STARLINK-33920          
1 63710U 25087P   26180.95940510  .00015845  00000+0  52108-3 0  9990
2 63710  53.1581  57.7248 0001007  80.2378 279.8737 15.31712702 66397
STARLINK-33580          
1 63711U 25087Q   26180.89882124  .00026799  00000+0  87170-3 0  9997
2 63711  53.1583  58.0539 0001725 143.5117 216.6002 15.31719540 66388
STARLINK-33783          
1 63712U 25087R   26180.95006970  .00021777  00000+0  71120-3 0  9991
2 63712  53.1581  57.6610 0000890  84.8643 275.2460 15.31712636 66394
STARLINK-33773          
1 63713U 25087S   26180.97798842  .00034919  00000+0  11309-2 0  9994
2 63713  53.1594  57.1251 0000903 127.0549 233.0536 15.31723457 66406
STARLINK-33745          
1 63714U 25087T   26181.58334491  .00047739  00000+0  16148-2 0  9999
2 63714  53.1590  54.9603 0001111  99.0491  27.7611 15.30175584  5816
STARLINK-33728          
1 63715U 25087U   26180.97989620  .00018823  00000+0  64534-3 0  9997
2 63715  53.1618  57.8437 0001322  85.5766 274.5386 15.30234677 66394
STARLINK-33749          
1 63716U 25087V   26180.95473772  .00029467  00000+0  95718-3 0  9996
2 63716  53.1584  57.6868 0000968  62.9233 297.1867 15.31713666 66392
STARLINK-33725          
1 63717U 25087W   26180.98306863  .00028373  00000+0  96544-3 0  9999
2 63717  53.1608  57.8624 0001117  81.9037 278.2091 15.30233349 66395
STARLINK-33641          
1 63718U 25087X   26180.93606740  .00023613  00000+0  77002-3 0  9992
2 63718  53.1589  57.5705 0000865  51.3750 308.7329 15.31710197 66398
STARLINK-33727          
1 63719U 25087Y   26180.92182385  .00026537  00000+0  79345-3 0  9996
2 63719  53.1598  56.0689 0000971  82.6501 277.4612 15.34412156 66410
STARLINK-33757          
1 63720U 25087Z   26180.92830387  .00028991  00000+0  98595-3 0  9994
2 63720  53.1606  58.2298 0000948  83.0552 277.0557 15.30238659 66387
STARLINK-33774          
1 63721U 25087AA  26180.94540132  .00030866  00000+0  10017-2 0  9999
2 63721  53.1577  57.6317 0001000  92.3816 267.7300 15.31720647 66393
STARLINK-33767          
1 63722U 25087AB  26180.98096943  .00017506  00000+0  60168-3 0  9999
2 63722  53.1602  57.8465 0001213  83.4148 276.6991 15.30205817 66395
STARLINK-33806          
1 63723U 25087AC  26180.92198483  .00036432  00000+0  12351-2 0  9995
2 63723  53.1608  58.1912 0001365  88.4276 271.6881 15.30228165 66381
STARLINK-11677 [DTC]    
1 63751U 25089A   26180.86107427  .00204688  00000+0  15573-2 0  9998
2 63751  42.9989 336.4289 0001835 263.8724  96.1934 15.70875947 67771
STARLINK-11702 [DTC]    
1 63752U 25089B   26181.47036161  .00110004  00000+0  84930-3 0  9995
2 63752  43.0000 332.3807 0001639 278.9612  81.1070 15.70844835 67872
STARLINK-11706 [DTC]    
1 63753U 25089C   26179.86482452 -.00018988  00000+0 -14477-3 0  9993
2 63753  42.9998 341.8337 0002240 237.1088 122.9564 15.70845174 67625
STARLINK-11662 [DTC]    
1 63754U 25089D   26181.48097867  .00168431  00000+0  12888-2 0  9997
2 63754  42.9998 332.4667 0001921 282.7931  77.2722 15.70856259 67923
STARLINK-11681 [DTC]    
1 63755U 25089E   26181.42801115  .00195480  00000+0  14886-2 0  9995
2 63755  43.0003 332.9349 0002103 298.3652  61.7004 15.70883261 67868
STARLINK-11688 [DTC]    
1 63756U 25089F   26180.90341262  .00212310  00000+0  16079-2 0  9998
2 63756  43.0009 335.8732 0004906 274.5466  85.4841 15.70952479 67674
STARLINK-11676 [DTC]    
1 63757U 25089G   26181.57097110  .00486112  00000+0  36097-2 0  9998
2 63757  42.9994 331.3995 0001381 251.1666 108.9052 15.70606001 67789
STARLINK-11705 [DTC]    
1 63758U 25089H   26181.48628214  .00088561  00000+0  68586-3 0  9999
2 63758  42.9993 332.5077 0001249 275.9952  84.0773 15.70856983 67823
STARLINK-11703 [DTC]    
1 63759U 25089J   26181.14714316  .00204780  00000+0  15580-2 0  9990
2 63759  43.0004 334.2519 0000595 351.3363   8.7494 15.70876138 67824
STARLINK-11701 [DTC]    
1 63760U 25089K   26181.13121615  .00162870  00000+0  12468-2 0  9990
2 63760  43.0013 334.1220 0000790   5.5351 354.5526 15.70863340 67825
STARLINK-11660 [DTC]    
1 63761U 25089L   26181.14182930  .00217450  00000+0  16503-2 0  9998
2 63761  42.9997 334.2095 0001530 292.6372  67.4334 15.70895523 67770
STARLINK-11699 [DTC]    
1 63762U 25089M   26181.12072212  .00183824  00000+0  14028-2 0  9995
2 63762  42.9999 334.9334 0001022 296.0474  64.0288 15.70871387 67811
STARLINK-11693 [DTC]    
1 63763U 25089N   26181.14805072  .00252496  00000+0  19085-2 0  9996
2 63763  42.9992 334.2582 0001166 284.3813  75.6925 15.70884795 67711
STARLINK-33760          
1 63764U 25089P   26180.87632345  .00018950  00000+0  69575-3 0  9992
2 63764  42.9994 131.7852 0001039 268.6500  91.4232 15.27609882 66115
